name,uid,resource_type,water_fountain,bottle_filler,jug_filler,dog_fountain,latitude,longitude,address,city,state,zip_code,park,access,public_access_hours_open,public_access_hours_close,public_access_days,notes,data_source,point,supervisor_district,analysis_neighborhood,data_as_of,data_loaded_at
Mission PG Clubhouse,7754601808523934818,restroom,0,0,0,0,37.75940476170159,-122.42242458311779,19th & Linda,San Francisco,CA,94110,Mission Playground,publicly_accessible,08:00:00,20:00:00,Daily,,rec,POINT (-122.422424583 37.759404762),9,Mission,2023/09/28 10:24:18 AM,2023/11/01 11:30:01 AM
Golden Gate Park Kezar Pavilion,5429619544843038820,restroom,0,0,0,0,37.76745063753899,-122.45405124751316,755 Stanyan,San Francisco,CA,94122,Golden Gate Park - Section 1,publicly_accessible,08:00:00,20:00:00,Daily,,rec,POINT (-122.454051248 37.767450638),5,Golden Gate Park,2023/09/28 10:24:18 AM,2023/11/01 11:30:01 AM
Mission Pit Stop - 24th and Mission (JCDecaux),428360424932887128,restroom,0,0,0,0,37.7521752,-122.4185771,24th and Mission (JCDecaux),San Francisco,CA,,,publicly_accessible,,,,,pit_stop,POINT (-122.4185771 37.7521752),9,Mission,2023/09/28 10:24:18 AM,2023/11/01 11:30:01 AM
Haight Pit Stop - Buena Vista Avenue East & Haight Street,6328566929400096264,restroom,0,0,0,0,37.7708518,-122.4403874,Buena Vista Avenue East & Haight Street,San Francisco,CA,,,publicly_accessible,,,,,pit_stop,POINT (-122.4403874 37.7708518),5,Haight Ashbury,2023/09/28 10:24:18 AM,2023/11/01 11:30:01 AM
Adam Rogers Restrooms,5250842426046357015,restroom,0,0,0,0,37.730885218605486,-122.38373284075733,Ingalls & Oakdale,San Francisco,CA,94124,Adam Rodgers Park,publicly_accessible,08:00:00,20:00:00,Daily,,rec,POINT (-122.383732841 37.730885219),10,Bayview Hunters Point,2023/09/28 10:24:18 AM,2023/11/01 11:30:01 AM
Sandy Tatum Clubhouse,930715351180699620,restroom,0,0,0,0,37.72466408467117,-122.4936547689743,Lake Merced Blvd,San Francisco,CA,94132,Lake Merced Park,limited_access,08:00:00,20:00:00,Daily,,rec,POINT (-122.493654769 37.724664085),7,Lakeshore,2023/09/28 10:24:18 AM,2023/11/01 11:30:01 AM
Presidio Wall Clubhouse,1155075361421330535,restroom,0,0,0,0,37.791289862356884,-122.45377960881231,West Pacific Ave & Spruce St,San Francisco,CA,94129,Presidio Wall Playground,publicly_accessible,08:00:00,20:00:00,Daily,,rec,POINT (-122.453779609 37.791289862),2,Presidio,2023/09/28 10:24:18 AM,2023/11/01 11:30:01 AM
Mission Pit Stop - 3100 26th Street,8331964738456881686,restroom,0,0,0,0,37.749447,-122.4116183,3100 26th Street,San Francisco,CA,,,publicly_accessible,,,,,pit_stop,POINT (-122.4116183 37.749447),9,Mission,2023/09/28 10:24:18 AM,2023/11/01 11:30:01 AM
Jackson Clubhouse,5798803553978306037,restroom,0,0,0,0,37.76388491551479,-122.39892773315472,17th & Arkansas St,San Francisco,CA,94107,Jackson Playground,publicly_accessible,08:00:00,20:00:00,Daily,,rec,POINT (-122.398927733 37.763884916),10,Potrero Hill,2023/09/28 10:24:18 AM,2023/11/01 11:30:01 AM
Crocker Amazon Bocce Ball Courts,8999648321766584695,restroom,0,0,0,0,37.714896769303756,-122.43204290745815,Moscow & Geneva Streets,San Francisco,CA,94134,Crocker Amazon Playground,publicly_accessible,08:00:00,20:00:00,Daily,,rec,POINT (-122.432042907 37.714896769),11,Excelsior,2023/09/28 10:24:18 AM,2023/11/01 11:30:01 AM
Sunset Rec Center,5857790688088800410,restroom,0,0,0,0,37.757060351081634,-122.48690808691967,2201 Lawton,San Francisco,CA,94122,Sunset Rec Center,publicly_accessible,08:00:00,20:00:00,Daily,,rec,POINT (-122.486908087 37.757060351),4,Sunset/Parkside,2023/09/28 10:24:18 AM,2023/11/01 11:30:01 AM
Friend Rec Center,778841274529508642,restroom,0,0,0,0,37.7787868393234,-122.40633920674145,270 6th St,San Francisco,CA,94103,Eugene Friend Rec Center,publicly_accessible,08:00:00,20:00:00,Daily,,rec,POINT (-122.406339207 37.778786839),6,South of Market,2023/09/28 10:24:18 AM,2023/11/01 11:30:01 AM
Hayes Valley Clubhouse,1185946669847466623,restroom,0,0,0,0,37.77590945767294,-122.42765945902734,Hayes & Buchanan St,San Francisco,CA,94102,Hayes Valley Playground,publicly_accessible,08:00:00,20:00:00,Daily,,rec,POINT (-122.427659459 37.775909458),5,Hayes Valley,2023/09/28 10:24:18 AM,2023/11/01 11:30:01 AM
Golden Gate Park Robin Williams Meadow Restroom,2718881212130349365,restroom,0,0,0,0,37.768200611311784,-122.45894631762889,Robin Williams Meadow,San Francisco,CA,94122,Golden Gate Park - Section 7,publicly_accessible,08:00:00,20:00:00,Daily,,rec,POINT (-122.458946318 37.768200611),7,Golden Gate Park,2023/09/28 10:24:18 AM,2023/11/01 11:30:01 AM
Golden Gate Park Hellman Hollow Restrooms (frmrly Speedway M,1303409436199885989,restroom,0,0,0,0,37.76953475323777,-122.48470587659801,Stanyan & Great Hwy,San Francisco,CA,94122,Golden Gate Park - Section 5,publicly_accessible,08:00:00,20:00:00,Daily,,rec,POINT (-122.484705877 37.769534753),4,Golden Gate Park,2023/09/28 10:24:18 AM,2023/11/01 11:30:01 AM
Richmond Rec Center,6492148637033534034,restroom,0,0,0,0,37.78340553904116,-122.47809344702091,251 18th Ave,San Francisco,CA,94121,Richmond Rec Center,publicly_accessible,08:00:00,20:00:00,Daily,,rec,POINT (-122.478093447 37.783405539),1,Outer Richmond,2023/09/28 10:24:18 AM,2023/11/01 11:30:01 AM
Joe DiMaggio Clubhouse/Pool,3522461969507678659,restroom,0,0,0,0,37.802766619021035,-122.412178239294,651 Lombard St,San Francisco,CA,94133,Joe DiMaggio Playground,publicly_accessible,08:00:00,20:00:00,Daily,,rec,POINT (-122.412178239 37.802766619),3,North Beach,2023/09/28 10:24:18 AM,2023/11/01 11:30:01 AM
Holly Park Bathrooms,275861013704290853,restroom,0,0,0,0,37.73712250938503,-122.42058677559456,Holly Park Cir,San Francisco,CA,94110,Holly Park,publicly_accessible,08:00:00,20:00:00,Daily,,rec,POINT (-122.420586776 37.737122509),9,Bernal Heights,2023/09/28 10:24:18 AM,2023/11/01 11:30:01 AM
Balboa Park East Bathrooms,4455528960831917212,restroom,0,0,0,0,37.72518013956719,-122.44422317261356,Ocean & San Jose,San Francisco,CA,94112,Balboa Park,publicly_accessible,08:00:00,20:00:00,Daily,,rec,POINT (-122.444223173 37.72518014),11,Outer Mission,2023/09/28 10:24:18 AM,2023/11/01 11:30:01 AM
J. P. Murphy Clubhouse,5312098977276546560,restroom,0,0,0,0,37.751564034010556,-122.4652225398227,1960 9th Ave,San Francisco,CA,94116,J.P. Murphy Playground,publicly_accessible,08:00:00,20:00:00,Daily,,rec,POINT (-122.46522254 37.751564034),7,Inner Sunset,2023/09/28 10:24:18 AM,2023/11/01 11:30:01 AM
Golden Gate Park Nursery Restrooms,5275881295470425080,restroom,0,0,0,0,37.768230481656374,-122.46214574083088,Stanyan & Great Hwy,San Francisco,CA,94122,Golden Gate Park - Section 7,publicly_accessible,08:00:00,20:00:00,Daily,,rec,POINT (-122.462145741 37.768230482),7,Golden Gate Park,2023/09/28 10:24:18 AM,2023/11/01 11:30:01 AM
Aptos: Restrooms,2157191259729629715,restroom,0,0,0,0,37.728526989094846,-122.46602408059509,,San Francisco,CA,94127,Aptos Playground,publicly_accessible,08:00:00,20:00:00,Daily,,rec,POINT (-122.466024081 37.728526989),7,West of Twin Peaks,2023/09/28 10:24:18 AM,2023/11/01 11:30:01 AM
Golden Gate Park Bowling Green Clubhouse,908549467321146716,restroom,0,0,0,0,37.768549716992446,-122.45898101241308,Stanyan & Great Hwy,San Francisco,CA,94122,Golden Gate Park - Section 7,publicly_accessible,08:00:00,20:00:00,Daily,,rec,POINT (-122.458981012 37.768549717),7,Golden Gate Park,2023/09/28 10:24:18 AM,2023/11/01 11:30:01 AM
Garfield Square Clubhouse,2120452437850770345,restroom,0,0,0,0,37.74990571988117,-122.41234390987782,26th & Harrison St,San Francisco,CA,94110,Garfield Square,publicly_accessible,08:00:00,20:00:00,Daily,,rec,POINT (-122.41234391 37.74990572),9,Mission,2023/09/28 10:24:18 AM,2023/11/01 11:30:01 AM
Alamo Square Restrooms,5648809740031184133,restroom,0,0,0,0,37.776086082936274,-122.43432881979481,Hayes & Steiner,San Francisco,CA,94117,Alamo Square,publicly_accessible,08:00:00,20:00:00,Daily,,rec,POINT (-122.43432882 37.776086083),5,Hayes Valley,2023/09/28 10:24:18 AM,2023/11/01 11:30:01 AM
Golden Gate Park Stanyan Kiosk,5807497384622026071,restroom,0,0,0,0,37.769905465820784,-122.45428181394065,Stanyan & Page,San Francisco,CA,94122,Golden Gate Park - Section 1,limited_access,08:00:00,20:00:00,Daily,,rec,POINT (-122.454281814 37.769905466),5,Golden Gate Park,2023/09/28 10:24:18 AM,2023/11/01 11:30:01 AM
Tenderloin Pit Stop - Taylor and Turk streets,7460298997726487520,restroom,0,0,0,0,37.7832058,-122.4108252,Taylor and Turk streets,San Francisco,CA,,,publicly_accessible,,,,,pit_stop,POINT (-122.4108252 37.7832058),5,Tenderloin,2023/09/28 10:24:18 AM,2023/11/01 11:30:01 AM
Moscone Bathrooms,3218658186314579548,restroom,0,0,0,0,37.80220198985305,-122.43462802580368,1800 Chestnut Street,San Francisco,CA,94123,Moscone Rec Center,publicly_accessible,08:00:00,20:00:00,Daily,,rec,POINT (-122.434628026 37.80220199),2,Marina,2023/09/28 10:24:18 AM,2023/11/01 11:30:01 AM
Harbormasters Office,7699958693289885831,restroom,0,0,0,0,37.80663638306637,-122.44262142783437,3950 Scott St,San Francisco,CA,94123,Yacht Harbor and Marina Green,limited_access,08:00:00,20:00:00,Daily,,rec,POINT (-122.442621428 37.806636383),,Marina,2023/09/28 10:24:18 AM,2023/11/01 11:30:01 AM
Herz Clubhouse,3974745258872349567,restroom,0,0,0,0,37.7139433142616,-122.41637788074307,1700 Visitacion & Hahn Sts,San Francisco,CA,94134,Herz Playground,publicly_accessible,08:00:00,20:00:00,Daily,,rec,POINT (-122.416377881 37.713943314),10,McLaren Park,2023/09/28 10:24:18 AM,2023/11/01 11:30:01 AM
Embarcadero Pit Stop - Embarcadero Plaza (JCDecaux),7227832692528728198,restroom,0,0,0,0,37.7946278,-122.394598,Embarcadero Plaza (JCDecaux),San Francisco,CA,,Embarcadero Plaza,publicly_accessible,,,,,pit_stop,POINT (-122.394598 37.7946278),3,Financial District/South Beach,2023/09/28 10:24:18 AM,2023/11/01 11:30:01 AM
Lake Merced Boathouse,4000040349104825380,restroom,0,0,0,0,37.72547563890555,-122.49936475909412,Lake Merced Blvd,San Francisco,CA,94132,Lake Merced Park,limited_access,08:00:00,20:00:00,Daily,,rec,POINT (-122.499364759 37.725475639),7,Lakeshore,2023/09/28 10:24:18 AM,2023/11/01 11:30:01 AM
Gilman Bathrooms,7956759552719151542,restroom,0,0,0,0,37.717183532770584,-122.38878585325068,Gilman Ave & Griffith,San Francisco,CA,94124,Gilman Playground,publicly_accessible,08:00:00,20:00:00,Daily,,rec,POINT (-122.388785853 37.717183533),10,Bayview Hunters Point,2023/09/28 10:24:18 AM,2023/11/01 11:30:01 AM
Noe Valley Courts Bathrooms,3699844018080909753,restroom,0,0,0,0,37.751489067874815,-122.43921688240489,24th & Douglass St,San Francisco,CA,94114,Noe Valley Courts,publicly_accessible,08:00:00,20:00:00,Daily,,rec,POINT (-122.439216882 37.751489068),8,Noe Valley,2023/09/28 10:24:18 AM,2023/11/01 11:30:01 AM
Yik Oi Huang Peace & Friendship Park Clubhouse,1677334419306752607,restroom,0,0,0,0,37.71274482954459,-122.40868228718548,251 Leland St,San Francisco,CA,94134,Visitacion Valley Playground,publicly_accessible,08:00:00,20:00:00,Daily,,rec,POINT (-122.408682287 37.71274483),10,Visitacion Valley,2023/09/28 10:24:18 AM,2023/11/01 11:30:01 AM
Mission Pit Stop - 885 Potrero Ave.,8190270987040459944,restroom,0,0,0,0,37.7584902,-122.4067787,885 Potrero Ave.,San Francisco,CA,,,publicly_accessible,,,,,pit_stop,POINT (-122.4067787 37.7584902),10,Mission,2023/09/28 10:24:18 AM,2023/11/01 11:30:01 AM
St Mary's PG Restrooms,2028357288166134714,restroom,0,0,0,0,37.7340856467432,-122.42143249563142,Murray & Justin Drive,San Francisco,CA,94110,St. Mary's Rec Center,publicly_accessible,08:00:00,20:00:00,Daily,,rec,POINT (-122.421432496 37.734085647),9,Bernal Heights,2023/09/28 10:24:18 AM,2023/11/01 11:30:01 AM
Haight Ashbury Pit Stop - Stanyan and Waller streets (JCDecaux),7142556760707795661,restroom,0,0,0,0,37.7682426,-122.4534175,Stanyan and Waller streets (JCDecaux),San Francisco,CA,,,publicly_accessible,,,,,pit_stop,POINT (-122.4534175 37.7682426),5,Golden Gate Park,2023/09/28 10:24:18 AM,2023/11/01 11:30:01 AM
Mid-Market Pit Stop - U.N. Plaza (JCDecaux) Mid Market Pit Stop Daily,8685031922893760649,restroom,0,0,0,0,37.7801432,-122.4130822,U.N. Plaza (JCDecaux)   Mid Market Pit Stop Daily,San Francisco,CA,,,publicly_accessible,,,,,pit_stop,POINT (-122.4130822 37.7801432),5,Tenderloin,2023/09/28 10:24:18 AM,2023/11/01 11:30:01 AM
McLaren Bike Restroom,1992537512030673501,restroom,0,0,0,0,37.7141346531449,-122.42329115421975,,San Francisco,CA,94134,John McLaren Park,publicly_accessible,08:00:00,20:00:00,Daily,,rec,POINT (-122.423291154 37.714134653),10,McLaren Park,2023/09/28 10:24:18 AM,2023/11/01 11:30:01 AM
States Street Restrooms,9073958045030391586,restroom,0,0,0,0,37.763769807227916,-122.43858247477598,States St,San Francisco,CA,94114,States Street Playground,publicly_accessible,08:00:00,20:00:00,Daily,,rec,POINT (-122.438582475 37.763769807),8,Castro/Upper Market,2023/09/28 10:24:18 AM,2023/11/01 11:30:01 AM
Francisco Restroom,6436225575973073163,restroom,0,0,0,0,37.80353647094104,-122.42122888299309,Hyde & Bay,San Francisco,CA,94109,Francisco Park,publicly_accessible,08:00:00,20:00:00,Daily,,rec,POINT (-122.421228883 37.803536471),2,Russian Hill,2023/09/28 10:24:18 AM,2023/11/01 11:30:01 AM
Mission Rec Center,7286495612961491893,restroom,0,0,0,0,37.75822044827675,-122.41279776056611,2450 Harrison St,San Francisco,CA,94110,Mission Rec Center,publicly_accessible,08:00:00,20:00:00,Daily,,rec,POINT (-122.412797761 37.758220448),9,Mission,2023/09/28 10:24:18 AM,2023/11/01 11:30:01 AM
Glen Park Rec Center,1653814492978563231,restroom,0,0,0,0,37.737024561055584,-122.4407694324129,Bosworth & O'Shaughnessy,San Francisco,CA,94131,,publicly_accessible,08:00:00,20:00:00,Daily,,rec,POINT (-122.440769432 37.737024561),8,Glen Park,2023/09/28 10:24:18 AM,2023/11/01 11:30:01 AM
Tenderloin Pit Stop - 200 Leavenworth St,8497191972008609824,restroom,0,0,0,0,37.783043,-122.4140649,200 Leavenworth St,San Francisco,CA,,,publicly_accessible,,,,,pit_stop,POINT (-122.4140649 37.783043),5,Tenderloin,2023/09/28 10:24:18 AM,2023/11/01 11:30:01 AM
Rochambeau Clubhouse,3542277325770407957,restroom,0,0,0,0,37.78501370715366,-122.48454456896599,24th Ave & Lake,San Francisco,CA,94121,Rochambeau Playground,publicly_accessible,08:00:00,20:00:00,Daily,,rec,POINT (-122.484544569 37.785013707),1,Outer Richmond,2023/09/28 10:24:18 AM,2023/11/01 11:30:01 AM
Joseph Lee Rec Center,4732333100158243303,restroom,0,0,0,0,37.73468677598079,-122.38948267619621,1395 Mendell St,San Francisco,CA,94124,Joseph Lee Rec Center,publicly_accessible,08:00:00,20:00:00,Daily,,rec,POINT (-122.389482676 37.734686776),10,Bayview Hunters Point,2023/09/28 10:24:18 AM,2023/11/01 11:30:01 AM
Mid-Market Pit Stop - Hallidie Plaza (JCDecaux),3464628251007818350,restroom,0,0,0,0,37.7844142,-122.4077797,Hallidie Plaza (JCDecaux),San Francisco,CA,,,publicly_accessible,,,,,pit_stop,POINT (-122.4077797 37.7844142),3,Tenderloin,2023/09/28 10:24:18 AM,2023/11/01 11:30:01 AM
McCoppin Square Clubhouse,341541798497557024,restroom,0,0,0,0,37.74355155905102,-122.48070841762875,24th & Taraval,San Francisco,CA,94116,McCoppin Square,publicly_accessible,08:00:00,20:00:00,Daily,,rec,POINT (-122.480708418 37.743551559),4,Sunset/Parkside,2023/09/28 10:24:18 AM,2023/11/01 11:30:01 AM
Lafayette Park Restrooms,4944039720054315216,restroom,0,0,0,0,37.79172412414463,-122.42815292618226,Washington & Laguna St,San Francisco,CA,94109,Lafayette Park,publicly_accessible,08:00:00,20:00:00,Daily,,rec,POINT (-122.428152926 37.791724124),2,Pacific Heights,2023/09/28 10:24:18 AM,2023/11/01 11:30:01 AM
Crocker Amazon Clubhouse,7495279004308334249,restroom,0,0,0,0,37.71518680630743,-122.4319875600785,Moscow & Italy St,San Francisco,CA,94134,Crocker Amazon Playground,publicly_accessible,08:00:00,20:00:00,Daily,,rec,POINT (-122.43198756 37.715186806),11,Excelsior,2023/09/28 10:24:18 AM,2023/11/01 11:30:01 AM
Raymond Kimbell Fieldhouse,2021633674666430636,restroom,0,0,0,0,37.782315486930706,-122.43561636826026,Steiner & O'Farrell St,San Francisco,CA,94115,Raymond Kimball Playground,limited_access,08:00:00,20:00:00,Daily,,rec,POINT (-122.435616368 37.782315487),5,Western Addition,2023/09/28 10:24:18 AM,2023/11/01 11:30:01 AM
Tenderloin Pit Stop - 474 O'Farrell Street,3273606294984689376,restroom,0,0,0,0,37.7858991,-122.4119361,474 O'Farrell Street,San Francisco,CA,,,publicly_accessible,,,,,pit_stop,POINT (-122.4119361 37.7858991),5,Tenderloin,2023/09/28 10:24:18 AM,2023/11/01 11:30:01 AM
Cayuga Clubhouse,3958142903091328013,restroom,0,0,0,0,37.714340697897065,-122.44983896669528,Cayuga & Naglee St,San Francisco,CA,94112,Cayuga Playground,publicly_accessible,08:00:00,20:00:00,Daily,,rec,POINT (-122.449838967 37.714340698),11,Outer Mission,2023/09/28 10:24:18 AM,2023/11/01 11:30:01 AM
Rossi Community Pool,5414478794514252376,restroom,0,0,0,0,37.77906477017134,-122.45837522852317,Arguello & Anza,San Francisco,CA,94118,Angelo J. Rossi Playground,publicly_accessible,08:00:00,20:00:00,Daily,,rec,POINT (-122.458375229 37.77906477),1,Lone Mountain/USF,2023/09/28 10:24:18 AM,2023/11/01 11:30:01 AM
Palega Rec Center,1380573470462414493,restroom,0,0,0,0,37.72920701577111,-122.40974186597414,500 Felton,San Francisco,CA,94134,Palega Playground,publicly_accessible,08:00:00,20:00:00,Daily,,rec,POINT (-122.409741866 37.729207016),9,Portola,2023/09/28 10:24:18 AM,2023/11/01 11:30:01 AM
Mountain Lake Restrooms,7662904050712720207,restroom,0,0,0,0,37.78702292650725,-122.4717815566751,12th Ave & Lake St,San Francisco,CA,94118,Mountain Lake Park,publicly_accessible,08:00:00,20:00:00,Daily,,rec,POINT (-122.471781557 37.787022927),1,Inner Richmond,2023/09/28 10:24:18 AM,2023/11/01 11:30:01 AM
Potrero del Sol maintenance shed,7369807581716614644,restroom,0,0,0,0,37.75010237707119,-122.40535701747807,Potrero & Army,San Francisco,CA,94110,Potrero del Sol,limited_access,08:00:00,20:00:00,Daily,,rec,POINT (-122.405357017 37.750102377),9,Mission,2023/09/28 10:24:18 AM,2023/11/01 11:30:01 AM
Hamilton Rec Center,8369580577400438332,restroom,0,0,0,0,37.784532521056015,-122.43517777945735,1900 Geary Blvd,San Francisco,CA,94115,Hamilton Rec Center,publicly_accessible,08:00:00,20:00:00,Daily,,rec,POINT (-122.435177779 37.784532521),5,Japantown,2023/09/28 10:24:18 AM,2023/11/01 11:30:01 AM
Tenderloin Pit Stop - Eddy St. and Jones St.,1822039486289552148,restroom,0,0,0,0,37.7841238,-122.4122697,Eddy St. and Jones St.,San Francisco,CA,,Father Alfred E. Boeddeker Park,publicly_accessible,,,,,pit_stop,POINT (-122.4122697 37.7841238),5,Tenderloin,2023/09/28 10:24:18 AM,2023/11/01 11:30:01 AM
Golden Gate Park Horseshoe Pits Bathroom,1345444901404498198,restroom,0,0,0,0,37.77375258325822,-122.45599541001691,Stanyan & Great Hwy,San Francisco,CA,94122,Golden Gate Park - Section 1,publicly_accessible,08:00:00,20:00:00,Daily,,rec,POINT (-122.45599541 37.773752583),1,Golden Gate Park,2023/09/28 10:24:18 AM,2023/11/01 11:30:01 AM
Jerry Garcia Amphitheatre Restroom,4378564667613058963,restroom,0,0,0,0,37.72085227658544,-122.41693628599539,Mansell & Visitacion,San Francisco,CA,94134,John McLaren Park,publicly_accessible,08:00:00,20:00:00,Daily,,rec,POINT (-122.416936286 37.720852277),9,McLaren Park,2023/09/28 10:24:18 AM,2023/11/01 11:30:01 AM
Golden Gate Park Big Rec Restroom,7412129545205733377,restroom,0,0,0,0,37.768535427649574,-122.46537749217539,Stanyan & Great Hwy,San Francisco,CA,94122,Golden Gate Park - Section 7,publicly_accessible,08:00:00,20:00:00,Daily,,rec,POINT (-122.465377492 37.768535428),7,Golden Gate Park,2023/09/28 10:24:18 AM,2023/11/01 11:30:01 AM
Balboa Park Community Pool,2219492298401891873,restroom,0,0,0,0,37.72640029011134,-122.44323591744637,San Jose Ave & Havelock,San Francisco,CA,94112,Balboa Park,publicly_accessible,08:00:00,20:00:00,Daily,,rec,POINT (-122.443235917 37.72640029),11,Outer Mission,2023/09/28 10:24:18 AM,2023/11/01 11:30:01 AM
Golden Gate Park Mothers Meadow Bathroom,3641707246750174634,restroom,0,0,0,0,37.76638470444172,-122.47669708312299,M.L. King Dr/19th Ave,San Francisco,CA,94122,Golden Gate Park - Section 4,publicly_accessible,08:00:00,20:00:00,Daily,,rec,POINT (-122.476697083 37.766384704),7,Golden Gate Park,2023/09/28 10:24:18 AM,2023/11/01 11:30:01 AM
Heron's Head Eco Center,8218204447177500715,restroom,0,0,0,0,37.73973960202031,-122.3753927154921,,San Francisco,CA,94124,Heron's Head Park,publicly_accessible,08:00:00,20:00:00,Daily,,rec,POINT (-122.375392715 37.739739602),10,Bayview Hunters Point,2023/09/28 10:24:18 AM,2023/11/01 11:30:01 AM
Golden Gate Park Stow Lake Restrooms,452880654814813649,restroom,0,0,0,0,37.77098212462675,-122.47687712170143,,San Francisco,CA,94122,Golden Gate Park - Section 4,publicly_accessible,08:00:00,20:00:00,Daily,,rec,POINT (-122.476877122 37.770982125),7,Golden Gate Park,2023/09/28 10:24:18 AM,2023/11/01 11:30:01 AM
Jose Coronado Clubhouse,2650616189117355099,restroom,0,0,0,0,37.75773442349162,-122.41514040680026,21st & Folsom,San Francisco,CA,94110,Jose Coronado Playground,publicly_accessible,08:00:00,20:00:00,Daily,,rec,POINT (-122.415140407 37.757734423),9,Mission,2023/09/28 10:24:18 AM,2023/11/01 11:30:01 AM
Margaret S. Hayward Restrooms,3584035291768217733,restroom,0,0,0,0,37.78049973550466,-122.42582255271614,1016 Laguna,San Francisco,CA,94102,Margaret S.Hayward Playground,publicly_accessible,08:00:00,20:00:00,Daily,,rec,POINT (-122.425822553 37.780499736),5,Western Addition,2023/09/28 10:24:18 AM,2023/11/01 11:30:01 AM
St Mary's Square Bathrooms,7471311198826182443,restroom,0,0,0,0,37.79171980699087,-122.4050920959734,California St & Grant St,San Francisco,CA,94108,St. Mary's Square,publicly_accessible,08:00:00,20:00:00,Daily,,rec,POINT (-122.405092096 37.791719807),3,Financial District/South Beach,2023/09/28 10:24:18 AM,2023/11/01 11:30:01 AM
Golden Gate Park Polo Field Bathroom,5853016065084613397,restroom,0,0,0,0,37.7667865056285,-122.49279312834591,Stanyan & Great Hwy,San Francisco,CA,94122,Golden Gate Park - Section 5,publicly_accessible,08:00:00,20:00:00,Daily,,rec,POINT (-122.492793128 37.766786506),4,Golden Gate Park,2023/09/28 10:24:18 AM,2023/11/01 11:30:01 AM
Golden Gate Park Chain of Lakes Bathroom,3540930831530257584,restroom,0,0,0,0,37.76797549638172,-122.5018186539798,Stanyan & Great Hwy,San Francisco,CA,94122,Golden Gate Park - Section 6,publicly_accessible,08:00:00,20:00:00,Daily,,rec,POINT (-122.501818654 37.767975496),1,Golden Gate Park,2023/09/28 10:24:18 AM,2023/11/01 11:30:01 AM
Southeast Community Center Restroom,2641768654156405405,restroom,0,0,0,0,37.7428,-122.387319,1550 Evans Ave,San Francisco,CA,94124,,limited_access,07:00:00,19:00:00,Weekdays,,puc,POINT (-122.387319 37.7428),10,Bayview Hunters Point,2023/09/28 10:24:18 AM,2023/11/01 11:30:01 AM
Golden Gate Park Model Yacht Clubhouse,2704115105226768367,restroom,0,0,0,0,37.770201066936195,-122.49559212340256,Stanyan & Great Hwy,San Francisco,CA,94122,Golden Gate Park - Section 5,publicly_accessible,08:00:00,20:00:00,Daily,,rec,POINT (-122.495592123 37.770201067),1,Golden Gate Park,2023/09/28 10:24:18 AM,2023/11/01 11:30:01 AM
MS Hayward Clubhouse,6767209351983151189,restroom,0,0,0,0,37.780539456770875,-122.42582573872672,1016 Laguna,San Francisco,CA,94102,Margaret S.Hayward Playground,publicly_accessible,08:00:00,20:00:00,Daily,,rec,POINT (-122.425825739 37.780539457),5,Western Addition,2023/09/28 10:24:18 AM,2023/11/01 11:30:01 AM
Yacht Harbor and Marina Green - Bench,3276676726064143324,restroom,0,0,0,0,37.80664933,-122.44254125,3950 Scott St,San Francisco,CA,94123,Yacht Harbor and Marina Green,limited_access,08:00:00,20:00:00,Daily,,rec,POINT (-122.4425545 37.8066543),,Marina,2023/09/28 10:24:18 AM,2023/11/01 11:30:01 AM
Bay View Restrooms,6307800013540237823,restroom,0,0,0,0,37.7255614487158,-122.39303327990716,3rd & Armstrong,San Francisco,CA,94124,Bayview K.C. Jones Playground,publicly_accessible,08:00:00,20:00:00,Daily,,rec,POINT (-122.39303328 37.725561449),10,Bayview Hunters Point,2023/09/28 10:24:18 AM,2023/11/01 11:30:01 AM
Lower Great Highway Judah Restrooms,472633773455991733,restroom,0,0,0,0,37.760245275584225,-122.5095665118734,Great Hwy & Noriega,San Francisco,CA,94122,Lower Great Highway,publicly_accessible,08:00:00,20:00:00,Daily,,rec,POINT (-122.509566512 37.760245276),4,Sunset/Parkside,2023/09/28 10:24:18 AM,2023/11/01 11:30:01 AM
Coffman Community Pool,8800887384107998647,restroom,0,0,0,0,37.71335158053841,-122.41572364715556,1701 Visitacion Ave,San Francisco,CA,94134,Herz Playground,publicly_accessible,08:00:00,20:00:00,Daily,,rec,POINT (-122.415723647 37.713351581),10,McLaren Park,2023/09/28 10:24:18 AM,2023/11/01 11:30:01 AM
Douglass Clubhouse,3198698486750945158,restroom,0,0,0,0,37.74781478909124,-122.43843167389852,26th & Douglass St,San Francisco,CA,94131,Douglass Playground,publicly_accessible,08:00:00,20:00:00,Daily,,rec,POINT (-122.438431674 37.747814789),8,Noe Valley,2023/09/28 10:24:18 AM,2023/11/01 11:30:01 AM
Golden Gate Park McLaren Lodge,3416477700079353706,restroom,0,0,0,0,37.77187874745921,-122.45481946760583,501 Stanyan St,San Francisco,CA,94122,Golden Gate Park - Section 1,limited_access,08:00:00,20:00:00,Daily,,rec,POINT (-122.454819468 37.771878747),1,Golden Gate Park,2023/09/28 10:24:18 AM,2023/11/01 11:30:01 AM
Ball Diamond 1 Grandstand,4785327987590003465,restroom,0,0,0,0,37.714968234445756,-122.4318982190083,Moscow & Geneva Streets,San Francisco,CA,94134,Crocker Amazon Playground,publicly_accessible,08:00:00,20:00:00,Daily,,rec,POINT (-122.431898219 37.714968234),11,Excelsior,2023/09/28 10:24:18 AM,2023/11/01 11:30:01 AM
Boeddeker Park Clubhouse,2534395336960747975,restroom,0,0,0,0,37.78431333585603,-122.41181375103316,295 Eddy St,San Francisco,CA,94102,Father Alfred E. Boeddeker Park,publicly_accessible,08:00:00,20:00:00,Daily,,rec,POINT (-122.411813751 37.784313336),5,Tenderloin,2023/09/28 10:24:18 AM,2023/11/01 11:30:01 AM
Tenderloin Pit Stop - Turk and Hyde streets,4596080096965280480,restroom,0,0,0,0,37.7825365,-122.4157402,Turk and Hyde streets,San Francisco,CA,,,publicly_accessible,,,,,pit_stop,POINT (-122.4157402 37.7825365),5,Tenderloin,2023/09/28 10:24:18 AM,2023/11/01 11:30:01 AM
South Sunset Clubhouse,7164518970109990344,restroom,0,0,0,0,37.738069261863394,-122.49828820528866,40th Ave & Vicente St,San Francisco,CA,94116,South Sunset Playground,publicly_accessible,08:00:00,20:00:00,Daily,,rec,POINT (-122.498288205 37.738069262),4,Sunset/Parkside,2023/09/28 10:24:18 AM,2023/11/01 11:30:01 AM
Junipero Serra Clubhouse,639104613465753824,restroom,0,0,0,0,37.72509667758532,-122.47409860537435,300 Stonecrest Dr,San Francisco,CA,94132,Junipero Serra Playground,publicly_accessible,08:00:00,20:00:00,Daily,,rec,POINT (-122.474098605 37.725096678),7,West of Twin Peaks,2023/09/28 10:24:18 AM,2023/11/01 11:30:01 AM
Eureka Valley Rec Center,2332821162557756966,restroom,0,0,0,0,37.76025851653294,-122.43646113090445,100 Collingwood,San Francisco,CA,94114,Eureka Valley Rec Center,publicly_accessible,08:00:00,20:00:00,Daily,,rec,POINT (-122.436461131 37.760258517),8,Castro/Upper Market,2023/09/28 10:24:18 AM,2023/11/01 11:30:01 AM
SoMa Pit Stop - 6th and Natoma streets,6442859660123884493,restroom,0,0,0,0,37.780182,-122.4077046,6th and Natoma streets,San Francisco,CA,,,publicly_accessible,,,,,pit_stop,POINT (-122.4077046 37.780182),6,South of Market,2023/09/28 10:24:18 AM,2023/11/01 11:30:01 AM
Portsmouth Square Clubhouse,5076840125778629956,restroom,0,0,0,0,37.7950205095647,-122.40533898871983,Washington & Kearny St,San Francisco,CA,94108,Portsmouth Square,publicly_accessible,08:00:00,20:00:00,Daily,,rec,POINT (-122.405338989 37.79502051),3,Chinatown,2023/09/28 10:24:18 AM,2023/11/01 11:30:01 AM
Tenderloin Pit Stop - Eddy St. and Larkin St. Tenderloin Pit Stop Daily,8111766670791515647,restroom,0,0,0,0,37.783353,-122.41769,Eddy St. and Larkin St.   Tenderloin Pit Stop Daily,San Francisco,CA,,,publicly_accessible,,,,,pit_stop,POINT (-122.41769 37.783353),5,Tenderloin,2023/09/28 10:24:18 AM,2023/11/01 11:30:01 AM
Mission Pit Stop - 16th and Mission streets (JCDecaux),1226175465277442641,restroom,0,0,0,0,37.7649465,-122.4200173,16th and Mission streets (JCDecaux),San Francisco,CA,,,publicly_accessible,,,,,pit_stop,POINT (-122.4200173 37.7649465),9,Mission,2023/09/28 10:24:18 AM,2023/11/01 11:30:01 AM
Grattan Clubhouse,4454891534355363438,restroom,0,0,0,0,37.76276001056365,-122.45197358354316,1180 Stanyan St,San Francisco,CA,94117,Grattan Playground,publicly_accessible,08:00:00,20:00:00,Daily,,rec,POINT (-122.451973584 37.762760011),8,Haight Ashbury,2023/09/28 10:24:18 AM,2023/11/01 11:30:01 AM
Trocadero Restrooms,745840664498017558,restroom,0,0,0,0,37.736201161633005,-122.4782232472135,19th Avenue & Sloat Boulevard,San Francisco,CA,94132,Sigmund Stern Recreation Grove,publicly_accessible,08:00:00,20:00:00,Daily,,rec,POINT (-122.478223247 37.736201162),4,Sunset/Parkside,2023/09/28 10:24:18 AM,2023/11/01 11:30:01 AM
Lincoln Park Restrooms,1342337739062596248,restroom,0,0,0,0,37.78422003957738,-122.50182641651354,34th Avenue & Clement,San Francisco,CA,94121,Lincoln Park,publicly_accessible,08:00:00,20:00:00,Daily,,rec,POINT (-122.501826417 37.78422004),1,Lincoln Park,2023/09/28 10:24:18 AM,2023/11/01 11:30:01 AM
Mission Art Center,5865210523169838923,restroom,0,0,0,0,37.758088756435995,-122.41344365384158,745 Treat St,San Francisco,CA,94110,Mission Rec Center,publicly_accessible,08:00:00,20:00:00,Daily,,rec,POINT (-122.413443654 37.758088756),9,Mission,2023/09/28 10:24:18 AM,2023/11/01 11:30:01 AM
Bayview Pit Stop - Mendell Plaza Bayview Pit Stop Daily,8982348774902252933,restroom,0,0,0,0,37.7340389,-122.3908134,Mendell Plaza   Bayview Pit Stop Daily,San Francisco,CA,,,publicly_accessible,,,,,pit_stop,POINT (-122.3908134 37.7340389),10,Bayview Hunters Point,2023/09/28 10:24:18 AM,2023/11/01 11:30:01 AM
St Mary's Rec Center,3427043505677543567,restroom,0,0,0,0,37.7340685207479,-122.42170664501008,Murray & Justin Dr,San Francisco,CA,94110,St. Mary's Rec Center,publicly_accessible,08:00:00,20:00:00,Daily,,rec,POINT (-122.421706645 37.734068521),9,Bernal Heights,2023/09/28 10:24:18 AM,2023/11/01 11:30:01 AM
Presidio Heights Clubhouse,4289748452748884379,restroom,0,0,0,0,37.78848312727694,-122.44983021402442,Clay & Walnut St,San Francisco,CA,94118,Presidio Heights Playground,publicly_accessible,08:00:00,20:00:00,Daily,,rec,POINT (-122.449830214 37.788483127),2,Presidio Heights,2023/09/28 10:24:18 AM,2023/11/01 11:30:01 AM
Michelangelo Gardeners Shed,4426667895717323973,restroom,0,0,0,0,37.80129135533541,-122.4167842996193,Greenwich & Jones,San Francisco,CA,94133,Michelangelo Playground,publicly_accessible,08:00:00,20:00:00,Daily,,rec,POINT (-122.4167843 37.801291355),3,Russian Hill,2023/09/28 10:24:18 AM,2023/11/01 11:30:01 AM
Golden Gate Park Millwright's House,2023776853834656901,restroom,0,0,0,0,37.76519673823587,-122.50843659415584,,San Francisco,CA,94122,Golden Gate Park - Section 6,limited_access,08:00:00,20:00:00,Daily,,rec,POINT (-122.508436594 37.765196738),4,Golden Gate Park,2023/09/28 10:24:18 AM,2023/11/01 11:30:01 AM
West Portal Clubhouse,1152567663852889285,restroom,0,0,0,0,37.74168341804243,-122.46530795554563,Ulloa & Lenox St,San Francisco,CA,94127,West Portal Playground,publicly_accessible,08:00:00,20:00:00,Daily,,rec,POINT (-122.465307956 37.741683418),7,West of Twin Peaks,2023/09/28 10:24:18 AM,2023/11/01 11:30:01 AM
Excelsior Clubhouse,7624069768620183306,restroom,0,0,0,0,37.7202344397827,-122.43358560682097,Russia Ave & Madrid,San Francisco,CA,94112,Excelsior Playground,publicly_accessible,08:00:00,20:00:00,Daily,,rec,POINT (-122.433585607 37.72023444),11,Excelsior,2023/09/28 10:24:18 AM,2023/11/01 11:30:01 AM
Golden Gate Park Rose Garden Bathroom,4916273171344549738,restroom,0,0,0,0,37.771522577582196,-122.47202098658721,Stanyan & Great Hwy,San Francisco,CA,94118,Golden Gate Park - Section 4,publicly_accessible,08:00:00,20:00:00,Daily,,rec,POINT (-122.472020987 37.771522578),1,Golden Gate Park,2023/09/28 10:24:18 AM,2023/11/01 11:30:01 AM
Mission Pit Stop - 344 14th St.,2466058572733021801,restroom,0,0,0,0,37.7682576,-122.4210014,344 14th St.,San Francisco,CA,,,publicly_accessible,,,,,pit_stop,POINT (-122.4210014 37.7682576),9,Mission,2023/09/28 10:24:18 AM,2023/11/01 11:30:01 AM
Pine Lake Park Clubhouse,2223355946498313310,restroom,0,0,0,0,37.73599377685351,-122.48720703446608,Sloat Blvd & Vale St,San Francisco,CA,94132,Pine Lake Park,publicly_accessible,08:00:00,20:00:00,Daily,,rec,POINT (-122.487207034 37.735993777),4,Sunset/Parkside,2023/09/28 10:24:18 AM,2023/11/01 11:30:01 AM
Golden Gate Park Kezar Stadium,3872681446707874355,restroom,0,0,0,0,37.76754118338009,-122.45601470037741,755 Stanyan,San Francisco,CA,94122,Golden Gate Park - Section 1,publicly_accessible,08:00:00,20:00:00,Daily,,rec,POINT (-122.4560147 37.767541183),5,Golden Gate Park,2023/09/28 10:24:18 AM,2023/11/01 11:30:01 AM
Sunnyside Clubhouse,1485550331730371135,restroom,0,0,0,0,37.7337038710484,-122.44735540227423,Teresita Ave & Melrose,San Francisco,CA,94127,Sunnyside Playground,publicly_accessible,08:00:00,20:00:00,Daily,,rec,POINT (-122.447355402 37.733703871),7,West of Twin Peaks,2023/09/28 10:24:18 AM,2023/11/01 11:30:01 AM
Lower Polk - Myrtle and Larkin streets (JCDecaux),7671891056194831451,restroom,0,0,0,0,37.7855716,-122.4180901,Myrtle and Larkin streets (JCDecaux),San Francisco,CA,,Sgt. John Macaulay Park,publicly_accessible,,,,,pit_stop,POINT (-122.4180901 37.7855716),5,Tenderloin,2023/09/28 10:24:18 AM,2023/11/01 11:30:01 AM
Bernal Heights Rec Center,3195322800649596575,restroom,0,0,0,0,37.73831275465582,-122.4159975455809,500 Moultrie St,San Francisco,CA,94110,Bernal Heights Rec Center,publicly_accessible,08:00:00,20:00:00,Daily,,rec,POINT (-122.415997546 37.738312755),9,Bernal Heights,2023/09/28 10:24:18 AM,2023/11/01 11:30:01 AM
Silver Terrace Clubhouse,502295565233411923,restroom,0,0,0,0,37.73251707663873,-122.4023989850709,Thornton & Bayshore,San Francisco,CA,94124,Silver Terrace Playground,publicly_accessible,08:00:00,20:00:00,Daily,,rec,POINT (-122.402398985 37.732517077),10,Bayview Hunters Point,2023/09/28 10:24:18 AM,2023/11/01 11:30:01 AM
Douglass Restrooms,6739609299111966026,restroom,0,0,0,0,37.74628322245812,-122.43968176169207,26th & Douglass Street,San Francisco,CA,94131,Douglass Playground,publicly_accessible,08:00:00,20:00:00,Daily,,rec,POINT (-122.439681762 37.746283222),8,Noe Valley,2023/09/28 10:24:18 AM,2023/11/01 11:30:01 AM
Moscone Rec Center,4678029647536132904,restroom,0,0,0,0,37.80148455163439,-122.4331857625021,1800 Chestnut St,San Francisco,CA,94123,Moscone Rec Center,publicly_accessible,08:00:00,20:00:00,Daily,,rec,POINT (-122.433185763 37.801484552),2,Marina,2023/09/28 10:24:18 AM,2023/11/01 11:30:01 AM
Christopher Clubhouse,2811668174124739375,restroom,0,0,0,0,37.7440206636432,-122.44026813352842,5210 Diamond Heights Boulevard,San Francisco,CA,94131,George Christopher Playground,publicly_accessible,08:00:00,20:00:00,Daily,,rec,POINT (-122.440268134 37.744020664),8,Glen Park,2023/09/28 10:24:18 AM,2023/11/01 11:30:01 AM
Parkside Square Bathrooms,3083197964417393154,restroom,0,0,0,0,37.73833759569041,-122.48372261516863,28th Ave & Vicente,San Francisco,CA,94116,Parkside Square,publicly_accessible,08:00:00,20:00:00,Daily,,rec,POINT (-122.483722615 37.738337596),4,Sunset/Parkside,2023/09/28 10:24:18 AM,2023/11/01 11:30:01 AM
Coit Tower,1300996872573206948,restroom,0,0,0,0,37.80244448542703,-122.40586278316921,#1 Telegraph Hill Blvd,San Francisco,CA,94133,Telegraph Hill - Pioneer Park,publicly_accessible,08:00:00,20:00:00,Daily,,rec,POINT (-122.405862783 37.802444485),3,North Beach,2023/09/28 10:24:18 AM,2023/11/01 11:30:01 AM
Portsmouth Square Bathrooms,5603727937050556653,restroom,0,0,0,0,37.79461139019399,-122.40563810633144,Washington & Walter Lum Pl,San Francisco,CA,94108,Portsmouth Square,publicly_accessible,08:00:00,20:00:00,Daily,,rec,POINT (-122.405638106 37.79461139),3,Chinatown,2023/09/28 10:24:18 AM,2023/11/01 11:30:01 AM
McLaren Park Oxford St Restroom,5813049252582342808,restroom,0,0,0,0,37.72295232995424,-122.41856158876581,Mansell & Visitacion,San Francisco,CA,94134,John McLaren Park,publicly_accessible,08:00:00,20:00:00,Daily,,rec,POINT (-122.418561589 37.72295233),11,McLaren Park,2023/09/28 10:24:18 AM,2023/11/01 11:30:01 AM
Golden Gate Park Japanese Tea Garden Female Restroom,2844524173085359393,restroom,0,0,0,0,37.770480037205736,-122.46945821883835,Stanyan & Great Hwy,San Francisco,CA,94118,Golden Gate Park - Section 2,publicly_accessible,08:00:00,20:00:00,Daily,,rec,POINT (-122.469458219 37.770480037),7,Golden Gate Park,2023/09/28 10:24:18 AM,2023/11/01 11:30:01 AM
Carl Larsen Restrooms,7214135946158862142,restroom,0,0,0,0,37.73959733870116,-122.47617041537094,19th Ave & Vicente,San Francisco,CA,94116,Carl Larsen Park,publicly_accessible,08:00:00,20:00:00,Daily,,rec,POINT (-122.476170415 37.739597339),4,Sunset/Parkside,2023/09/28 10:24:18 AM,2023/11/01 11:30:01 AM
Outer Sunset Pit Stop - Judah and La Playa streets (Rec Park),6773564667651549547,restroom,0,0,0,0,37.7603081,-122.5091618,Judah and La Playa streets (Rec Park),San Francisco,CA,,,publicly_accessible,,,,,pit_stop,POINT (-122.5091618 37.7603081),4,Sunset/Parkside,2023/09/28 10:24:18 AM,2023/11/01 11:30:01 AM
Marina Green Bathrooms East,6233768905277028649,restroom,0,0,0,0,37.80646811370672,-122.43452514406691,Marina Blvd,San Francisco,CA,94123,Yacht Harbor and Marina Green,publicly_accessible,08:00:00,20:00:00,Daily,,rec,POINT (-122.434525144 37.806468114),2,Marina,2023/09/28 10:24:18 AM,2023/11/01 11:30:01 AM
Lower Great Highway Taraval Restrooms,271232090700619754,restroom,0,0,0,0,37.74142662764033,-122.50707980983827,Great Hwy & Taraval,San Francisco,CA,94116,Lower Great Highway,publicly_accessible,08:00:00,20:00:00,Daily,,rec,POINT (-122.50707981 37.741426628),4,Sunset/Parkside,2023/09/28 10:24:18 AM,2023/11/01 11:30:01 AM
Bayview Pit Stop - 2500 Jennings St,3068763388383169130,restroom,0,0,0,0,37.7245334,-122.3908424,2500 Jennings St,San Francisco,CA,,,publicly_accessible,,,,,pit_stop,POINT (-122.3908424 37.7245334),10,Bayview Hunters Point,2023/09/28 10:24:18 AM,2023/11/01 11:30:01 AM
Golden Gate Park Senior Center,4150053459881223465,restroom,0,0,0,0,37.77206108877169,-122.49710208926624,6101 Fulton St & 37th Ave,San Francisco,CA,94122,Golden Gate Park - Section 5,publicly_accessible,08:00:00,20:00:00,Daily,,rec,POINT (-122.497102089 37.772061089),1,Outer Richmond,2023/09/28 10:24:18 AM,2023/11/01 11:30:01 AM
Golden Gate Park Arboretum South Restrooms,8725389756873139958,restroom,0,0,0,0,37.76682600667807,-122.46836579870839,Stanyan & Great Hwy,San Francisco,CA,94122,Golden Gate Park - Section 3,publicly_accessible,08:00:00,20:00:00,Daily,,rec,POINT (-122.468365799 37.766826007),7,Golden Gate Park,2023/09/28 10:24:18 AM,2023/11/01 11:30:01 AM
Sunnyside Playground Restrooms,7362251202804633462,restroom,0,0,0,0,37.73389885178828,-122.44827783965484,233 Melrose Avenue,San Francisco,CA,94127,Sunnyside Playground,publicly_accessible,08:00:00,20:00:00,Daily,,rec,POINT (-122.44827784 37.733898852),7,West of Twin Peaks,2023/09/28 10:24:18 AM,2023/11/01 11:30:01 AM
Sunnyside Conservatory,3755932850212164196,restroom,0,0,0,0,37.73197547399384,-122.44079021945467,Monterey & Baden,San Francisco,CA,94131,Sunnyside Conservatory,publicly_accessible,08:00:00,20:00:00,Daily,,rec,POINT (-122.440790219 37.731975474),7,West of Twin Peaks,2023/09/28 10:24:18 AM,2023/11/01 11:30:01 AM
Argonne: Clubhouse,1515965608021042744,restroom,0,0,0,0,37.779601568535035,-122.4777727661063,18th Ave  &  Geary Blvd,San Francisco,CA,94121,Argonne Playground,publicly_accessible,08:00:00,20:00:00,Daily,,rec,POINT (-122.477772766 37.779601569),1,Outer Richmond,2023/09/28 10:24:18 AM,2023/11/01 11:30:01 AM
Mclaren Park Mansell Clubhouse,5091504287788298317,restroom,0,0,0,0,37.719149519398535,-122.41269614362776,Mansell & Visitacion,San Francisco,CA,94134,John McLaren Park,publicly_accessible,08:00:00,20:00:00,Daily,,rec,POINT (-122.412696144 37.719149519),9,McLaren Park,2023/09/28 10:24:18 AM,2023/11/01 11:30:01 AM
McCoppin Square Restrooms,468960480913195708,restroom,0,0,0,0,37.74353231555257,-122.48092128508756,24th & Taraval,San Francisco,CA,94116,McCoppin Square,publicly_accessible,08:00:00,20:00:00,Daily,,rec,POINT (-122.480921285 37.743532316),4,Sunset/Parkside,2023/09/28 10:24:18 AM,2023/11/01 11:30:01 AM
Ocean Beach Pit Stop - Great Highway near Beach Chalet,8978516872808671611,restroom,0,0,0,0,37.7675953,-122.5107794,Great Highway near Beach Chalet,San Francisco,CA,,Lower Great Highway,publicly_accessible,,,,,pit_stop,POINT (-122.5107794 37.7675953),4,Golden Gate Park,2023/09/28 10:24:18 AM,2023/11/01 11:30:01 AM
Mission Pit Stop - 16th and Capp streets TEMPORARILY CLOSED,2272140836867511486,restroom,0,0,0,0,37.7651596,-122.4187982,16th and Capp streets   TEMPORARILY CLOSED,San Francisco,CA,,,out_of_service,,,,,pit_stop,POINT (-122.4187982 37.7651596),9,Mission,2023/09/28 10:24:18 AM,2023/11/01 11:30:01 AM
Mission Pit Stop - Julian Avenue & 15th Street,3416910908677214350,restroom,0,0,0,0,37.7665961,-122.4210799,Julian Avenue & 15th Street,San Francisco,CA,,,publicly_accessible,,,,,pit_stop,POINT (-122.4210799 37.7665961),9,Mission,2023/09/28 10:24:18 AM,2023/11/01 11:30:01 AM
Alta: Restrooms,6158554384647289115,restroom,0,0,0,0,37.791246632695966,-122.43816773231009,Jackson & Steiner,San Francisco,CA,94115,Alta Plaza Park,publicly_accessible,08:00:00,20:00:00,Daily,,rec,POINT (-122.438167732 37.791246633),2,Pacific Heights,2023/09/28 10:24:18 AM,2023/11/01 11:30:01 AM
Tenderloin Pit Stop - 388 Ellis St. Tenderloin Pit Stop Daily,7586582180154968615,restroom,0,0,0,0,37.7850978,-122.4125547,388 Ellis St.   Tenderloin Pit Stop Daily,San Francisco,CA,,,publicly_accessible,,,,,pit_stop,POINT (-122.4125547 37.7850978),5,Tenderloin,2023/09/28 10:24:18 AM,2023/11/01 11:30:01 AM
DuPont Courts Restrooms,9157226914370568505,restroom,0,0,0,0,37.78288410122402,-122.49085415667906,30th Ave & Clement,San Francisco,CA,94121,DuPont Tennis Courts,publicly_accessible,08:00:00,20:00:00,Daily,,rec,POINT (-122.490854157 37.782884101),1,Outer Richmond,2023/09/28 10:24:18 AM,2023/11/01 11:30:01 AM
Golden Gate Park Park Aid Station,6515724856502307209,restroom,0,0,0,0,37.7669891329403,-122.45335129124264,811 Stanyan St,San Francisco,CA,94122,Golden Gate Park - Section 1,limited_access,08:00:00,20:00:00,Daily,,rec,POINT (-122.453351291 37.766989133),5,Golden Gate Park,2023/09/28 10:24:18 AM,2023/11/01 11:30:01 AM
Martin Luther King Jr Pool,8462497620449821810,restroom,0,0,0,0,37.72539341134939,-122.3933782381792,3rd & Armstrong,San Francisco,CA,94124,Bayview K.C. Jones Playground,publicly_accessible,08:00:00,20:00:00,Daily,,rec,POINT (-122.393378238 37.725393411),10,Bayview Hunters Point,2023/09/28 10:24:18 AM,2023/11/01 11:30:01 AM
Laurel Hill Clubhouse,5792798905216035670,restroom,0,0,0,0,37.78369099758741,-122.45113545077142,Euclid & Collins St,San Francisco,CA,94118,Laurel Hill Playground,publicly_accessible,08:00:00,20:00:00,Daily,,rec,POINT (-122.451135451 37.783690998),2,Presidio Heights,2023/09/28 10:24:18 AM,2023/11/01 11:30:01 AM
Golden Gate Park Tennis & Pro Shop,8197108090095025584,restroom,0,0,0,0,37.770045474657934,-122.45956522414929,Stanyan & Great Hwy,San Francisco,CA,94122,Golden Gate Park - Section 7,publicly_accessible,08:00:00,20:00:00,Daily,,rec,POINT (-122.459565224 37.770045475),7,Golden Gate Park,2023/09/28 10:24:18 AM,2023/11/01 11:30:01 AM
Harvey Milk Recreational Arts Bldg,3179317602354845196,restroom,0,0,0,0,37.769579230805306,-122.4345775107414,50 Scott St,San Francisco,CA,94117,Duboce Park,publicly_accessible,08:00:00,20:00:00,Daily,,rec,POINT (-122.434577511 37.769579231),8,Haight Ashbury,2023/09/28 10:24:18 AM,2023/11/01 11:30:01 AM
Midtown Terrace Clubhouse,2914129059992107756,restroom,0,0,0,0,37.75167266482095,-122.45588192095771,Clarendon & Olympia Way,San Francisco,CA,94131,Midtown Terrace Playground,publicly_accessible,08:00:00,20:00:00,Daily,,rec,POINT (-122.455881921 37.751672665),7,Twin Peaks,2023/09/28 10:24:18 AM,2023/11/01 11:30:01 AM
North Beach Pit Stop - Washington Square at Union St. (JCDecaux),5044111039446243996,restroom,0,0,0,0,37.8004679,-122.4097323,Washington Square at Union St. (JCDecaux),San Francisco,CA,,Washington Square,publicly_accessible,,,,,pit_stop,POINT (-122.4097323 37.8004679),3,North Beach,2023/09/28 10:24:18 AM,2023/11/01 11:30:01 AM
SoMa Pit Stop - Victoria Manalo Draves Park (Rec Park),3769861877417491906,restroom,0,0,0,0,37.7767602,-122.4060242,Victoria Manalo Draves Park (Rec Park),San Francisco,CA,,Victoria Manalo Draves Park,publicly_accessible,,,,,pit_stop,POINT (-122.4060242 37.7767602),6,South of Market,2023/09/28 10:24:18 AM,2023/11/01 11:30:01 AM
Louis Sutter Clubhouse,5639449430404933875,restroom,0,0,0,0,37.722391053344516,-122.41438778560583,Wayland & Yale St,San Francisco,CA,94134,Louis Sutter Playground,publicly_accessible,08:00:00,20:00:00,Daily,,rec,POINT (-122.414387786 37.722391053),9,McLaren Park,2023/09/28 10:24:18 AM,2023/11/01 11:30:01 AM
Golden Gate Park Chalet Soccer Fields Restrooms,7568799149189004874,restroom,0,0,0,0,37.76726782189881,-122.50798560271909,John F. Kennedy Dr,San Francisco,CA,94122,Golden Gate Park - Section 6,publicly_accessible,08:00:00,20:00:00,Daily,,rec,POINT (-122.507985603 37.767267822),4,Golden Gate Park,2023/09/28 10:24:18 AM,2023/11/01 11:30:01 AM
Golden Gate Park Polo Field North Restrooms,4046357852653494848,restroom,0,0,0,0,37.769420721156855,-122.4930999211482,,San Francisco,CA,94122,Golden Gate Park - Section 5,publicly_accessible,08:00:00,20:00:00,Daily,,rec,POINT (-122.493099921 37.769420721),4,Golden Gate Park,2023/09/28 10:24:18 AM,2023/11/01 11:30:01 AM
Golden Gate Park Kezar Fieldhouse S,8550628426363439131,restroom,0,0,0,0,37.76618595777569,-122.4559997103672,755 Stanyan,San Francisco,CA,94122,Golden Gate Park - Section 1,publicly_accessible,08:00:00,20:00:00,Daily,,rec,POINT (-122.45599971 37.766185958),5,Golden Gate Park,2023/09/28 10:24:18 AM,2023/11/01 11:30:01 AM
Hilltop Park Bathrooms,363749136987183442,restroom,0,0,0,0,37.73307125881445,-122.38257771924184,La Salle & Whitney Young Cir,San Francisco,CA,94124,Hilltop Park,publicly_accessible,08:00:00,20:00:00,Daily,,rec,POINT (-122.382577719 37.733071259),10,Bayview Hunters Point,2023/09/28 10:24:18 AM,2023/11/01 11:30:01 AM
Mission Pit Stop - SFGH Building 25 Covid 19 Pit Stop,8639041455397686454,restroom,0,0,0,0,37.7551445,-122.405358,SFGH Building 25 Covid 19 Pit Stop,San Francisco,CA,,,publicly_accessible,,,,,pit_stop,POINT (-122.405358 37.7551445),10,Mission,2023/09/28 10:24:18 AM,2023/11/01 11:30:01 AM
Minnie & Lovie Ward Rec Center,7200183235575193233,restroom,0,0,0,0,37.71630760585444,-122.45746131249439,650 Capitol Ave,San Francisco,CA,94112,Minnie and Lovie Rec Center,publicly_accessible,08:00:00,20:00:00,Daily,,rec,POINT (-122.457461312 37.716307606),11,Oceanview/Merced/Ingleside,2023/09/28 10:24:18 AM,2023/11/01 11:30:01 AM
Randall Museum,4121861414795695393,restroom,0,0,0,0,37.76454038620552,-122.43823384024425,Roosevelt & Museum Way,San Francisco,CA,94114,Corona Heights Park,publicly_accessible,08:00:00,20:00:00,Daily,,rec,POINT (-122.43823384 37.764540386),8,Castro/Upper Market,2023/09/28 10:24:18 AM,2023/11/01 11:30:01 AM
Washington Square Bathrooms,9223139223415104835,restroom,0,0,0,0,37.80106426145557,-122.41063428453177,Filbert & Stockton & Columbus,San Francisco,CA,94133,Washington Square,publicly_accessible,08:00:00,20:00:00,Daily,,rec,POINT (-122.410634285 37.801064261),3,North Beach,2023/09/28 10:24:18 AM,2023/11/01 11:30:01 AM
Mission Dolores North Restrooms,6020738412176969080,restroom,0,0,0,0,37.760787977469185,-122.42773810920669,19th & Dolores St,San Francisco,CA,94114,Mission Dolores Park,publicly_accessible,08:00:00,20:00:00,Daily,,rec,POINT (-122.427738109 37.760787977),8,Castro/Upper Market,2023/09/28 10:24:18 AM,2023/11/01 11:30:01 AM
Chalmers: Clubhouse,4935046314119674759,restroom,0,0,0,0,37.70950399236284,-122.44706566649934,670 Brunswick & Lowell Roemer,San Francisco,CA,94112,Alice Chalmers Playground,publicly_accessible,08:00:00,20:00:00,Daily,,rec,POINT (-122.447065666 37.709503992),11,Excelsior,2023/09/28 10:24:18 AM,2023/11/01 11:30:01 AM
Fulton Clubhouse,5914464353027580566,restroom,0,0,0,0,37.77355507775869,-122.4868884140519,27th Ave & Fulton St,San Francisco,CA,94121,Fulton Playground,publicly_accessible,08:00:00,20:00:00,Daily,,rec,POINT (-122.486888414 37.773555078),1,Outer Richmond,2023/09/28 10:24:18 AM,2023/11/01 11:30:01 AM
Marina Green Bathrooms West,7071238898309551670,restroom,0,0,0,0,37.80567372316939,-122.44826244873836,Marina Blvd,San Francisco,CA,94123,Yacht Harbor and Marina Green,publicly_accessible,08:00:00,20:00:00,Daily,,rec,POINT (-122.448262449 37.805673723),2,Marina,2023/09/28 10:24:18 AM,2023/11/01 11:30:01 AM
Willie Woo Woo Wong Clubhouse,833784527962744172,restroom,0,0,0,0,37.79362869826284,-122.40704783815053,850 Sacramento St,San Francisco,CA,94108,Willie Woo Woo Wong Playground,publicly_accessible,08:00:00,20:00:00,Daily,,rec,POINT (-122.407047838 37.793628698),3,Chinatown,2023/09/28 10:24:18 AM,2023/11/01 11:30:01 AM
Golden Gate Park Conservatory Bathroom,2595978294909240049,restroom,0,0,0,0,37.7726071209186,-122.46078914134327,Stanyan & Great Hwy,San Francisco,CA,94122,Golden Gate Park - Section 3,publicly_accessible,08:00:00,20:00:00,Daily,,rec,POINT (-122.460789141 37.772607121),1,Golden Gate Park,2023/09/28 10:24:18 AM,2023/11/01 11:30:01 AM
Potrero Hill Rec Center,5068999930283866876,restroom,0,0,0,0,37.75606313229893,-122.39703757860171,801 Arkansas St,San Francisco,CA,94107,Potrero Hill Rec Center,publicly_accessible,08:00:00,20:00:00,Daily,,rec,POINT (-122.397037579 37.756063132),10,Potrero Hill,2023/09/28 10:24:18 AM,2023/11/01 11:30:01 AM
Cabrillo Clubhouse,5261161722080981663,restroom,0,0,0,0,37.77310560006323,-122.4984882447951,38th Ave  &  Cabrillo,San Francisco,CA,94121,Cabrillo Playground,publicly_accessible,08:00:00,20:00:00,Daily,,rec,POINT (-122.498488245 37.7731056),1,Outer Richmond,2023/09/28 10:24:18 AM,2023/11/01 11:30:01 AM
Matthew Boxer Stadium,8899937437357167847,restroom,0,0,0,0,37.72617635780315,-122.44515599685799,Ocean & San Jose,San Francisco,CA,94112,Balboa Park,publicly_accessible,08:00:00,20:00:00,Daily,,rec,POINT (-122.445155997 37.726176358),11,Outer Mission,2023/09/28 10:24:18 AM,2023/11/01 11:30:01 AM
Castro Pit Stop - Market and Castro streets (JCDecaux),3991774780780772696,restroom,0,0,0,0,37.7627732,-122.4348053,Market and Castro streets (JCDecaux),San Francisco,CA,,,publicly_accessible,,,,,pit_stop,POINT (-122.4348053 37.7627732),8,Castro/Upper Market,2023/09/28 10:24:18 AM,2023/11/01 11:30:01 AM
Golden Gate Park Panhandle Restroom Bldg,7206395870757051780,restroom,0,0,0,0,37.77236921062183,-122.44763870798627,Stanyan & Great Hwy,San Francisco,CA,94117,Golden Gate Park - Section 1,publicly_accessible,08:00:00,20:00:00,Daily,,rec,POINT (-122.447638708 37.772369211),5,Golden Gate Park,2023/09/28 10:24:18 AM,2023/11/01 11:30:01 AM
Golden Gate Park Sharon Arts Studio,8592488633681375097,restroom,0,0,0,0,37.76825165186147,-122.45826061867582,Sharon Meadow,San Francisco,CA,94122,Golden Gate Park - Section 7,publicly_accessible,08:00:00,20:00:00,Daily,,rec,POINT (-122.458260619 37.768251652),7,Golden Gate Park,2023/09/28 10:24:18 AM,2023/11/01 11:30:01 AM
Mission Pit Stop - SFGH Building 80/90 COVID 19 Pit Stop,175034497487408157,restroom,0,0,0,0,37.7571167,-122.4056906,SFGH Building 80/90 COVID 19 Pit Stop,San Francisco,CA,,,publicly_accessible,,,,,pit_stop,POINT (-122.4056906 37.7571167),10,Mission,2023/09/28 10:24:18 AM,2023/11/01 11:30:01 AM
Civic Center Pit Stop - Grove and Larkin streets (JCDecaux),400838196920771509,restroom,0,0,0,0,37.7787317,-122.4169278,Grove and Larkin streets (JCDecaux),San Francisco,CA,,,publicly_accessible,,,,,pit_stop,POINT (-122.4169278 37.7787317),5,Tenderloin,2023/09/28 10:24:18 AM,2023/11/01 11:30:01 AM
Golden Gate Park Boat Children's Play Area Restroom,4477704728310835559,restroom,0,0,0,0,37.76448017598026,-122.50495828641058,John F. Kennedy Dr,San Francisco,CA,94122,Golden Gate Park - Section 6,publicly_accessible,08:00:00,20:00:00,Daily,,rec,POINT (-122.504958286 37.764480176),4,Golden Gate Park,2023/09/28 10:24:18 AM,2023/11/01 11:30:01 AM
Balboa Park West Bathrooms,1769901743412994542,restroom,0,0,0,0,37.72515053758773,-122.44552973999808,Ocean & San Jose,San Francisco,CA,94112,Balboa Park,publicly_accessible,08:00:00,20:00:00,Daily,,rec,POINT (-122.44552974 37.725150538),11,Outer Mission,2023/09/28 10:24:18 AM,2023/11/01 11:30:01 AM
Cow Hollow Clubhouse,268193261574787356,restroom,0,0,0,0,37.79738738547435,-122.44467422301558,Baker & Filbert St,San Francisco,CA,94123,Cow Hollow Playground,publicly_accessible,08:00:00,20:00:00,Daily,,rec,POINT (-122.444674223 37.797387385),2,Marina,2023/09/28 10:24:18 AM,2023/11/01 11:30:01 AM
Rossi Annex Bathrooms,6562678434491126801,restroom,0,0,0,0,37.777987485913116,-122.45767115611767,2 Willard North Street,San Francisco,CA,94118,Angelo J. Rossi Playground,publicly_accessible,08:00:00,20:00:00,Daily,,rec,POINT (-122.457671156 37.777987486),1,Lone Mountain/USF,2023/09/28 10:24:18 AM,2023/11/01 11:30:01 AM
Glen Silver Tree Clubhouse,7299141279747414876,restroom,0,0,0,0,37.740668163611694,-122.44236799449727,Diamond & Farnum St,San Francisco,CA,94131,Glen Canyon Park,publicly_accessible,08:00:00,20:00:00,Daily,,rec,POINT (-122.442367994 37.740668164),8,Glen Park,2023/09/28 10:24:18 AM,2023/11/01 11:30:01 AM
Mission Dolores South Restrooms,6914552669529225689,restroom,0,0,0,0,37.75856331955011,-122.4264190310987,19th & Dolores Streets,San Francisco,CA,94114,Mission Dolores Park,publicly_accessible,08:00:00,20:00:00,Daily,,rec,POINT (-122.426419031 37.75856332),8,Castro/Upper Market,2023/09/28 10:24:18 AM,2023/11/01 11:30:01 AM
Golden Gate Park County Fair Bldg,267201242479838480,restroom,0,0,0,0,37.76651026065497,-122.46712993362594,Stanyan & Great Hwy,San Francisco,CA,94122,Golden Gate Park - Section 3,publicly_accessible,08:00:00,20:00:00,Daily,,rec,POINT (-122.467129934 37.766510261),7,Golden Gate Park,2023/09/28 10:24:18 AM,2023/11/01 11:30:01 AM
Merced Heights Clubhouse,9220700351671859647,restroom,0,0,0,0,37.71773930376945,-122.47015598167661,Byxbee & Shields St,San Francisco,CA,94132,Merced Heights Playground,publicly_accessible,08:00:00,20:00:00,Daily,,rec,POINT (-122.470155982 37.717739304),11,Oceanview/Merced/Ingleside,2023/09/28 10:24:18 AM,2023/11/01 11:30:01 AM
James Rolph Jr Clubhouse,8648877855879303740,restroom,0,0,0,0,37.75003216610579,-122.40660092790397,Potrero & Cesar Chavez St,San Francisco,CA,94110,James Rolph Jr. Playground,publicly_accessible,08:00:00,20:00:00,Daily,,rec,POINT (-122.406600928 37.750032166),9,Mission,2023/09/28 10:24:18 AM,2023/11/01 11:30:01 AM
Stern: Trocadero Clubhouse,8133832864124121718,restroom,0,0,0,0,37.7361723482516,-122.4779173400565,19th Ave & Sloat Blvd,San Francisco,CA,94132,Sigmund Stern Recreation Grove,publicly_accessible,08:00:00,20:00:00,Daily,,rec,POINT (-122.47791734 37.736172348),4,Sunset/Parkside,2023/09/28 10:24:18 AM,2023/11/01 11:30:01 AM
Betty Ann Ong Chinese Recreation Center,9071085066755205918,restroom,0,0,0,0,37.7942738180445,-122.41169058647957,1199 Mason St,San Francisco,CA,94108,Betty Ann Ong Chinese Rec Center,publicly_accessible,08:00:00,20:00:00,Daily,,rec,POINT (-122.411690586 37.794273818),3,Nob Hill,2023/09/28 10:24:18 AM,2023/11/01 11:30:01 AM
Upper Noe Rec Center building,3158456019003072220,restroom,0,0,0,0,37.742446411535234,-122.42843389677046,Day & Sanchez Streets,San Francisco,CA,94131,Upper Noe Rec Center,publicly_accessible,08:00:00,20:00:00,Daily,,rec,POINT (-122.428433897 37.742446412),8,Noe Valley,2023/09/28 10:24:18 AM,2023/11/01 11:30:01 AM
McLaren Bike Muni Restroom,6153008481896635412,restroom,0,0,0,0,37.71408977538703,-122.42331648466511,,San Francisco,CA,94134,John McLaren Park,publicly_accessible,08:00:00,20:00:00,Daily,,rec,POINT (-122.423316485 37.714089775),10,McLaren Park,2023/09/28 10:24:18 AM,2023/11/01 11:30:01 AM
Garfield Square Community Pool,5735591419346594273,restroom,0,0,0,0,37.7499765676045,-122.41197072562764,26th & Harrison St,San Francisco,CA,94110,Garfield Square,publicly_accessible,08:00:00,20:00:00,Daily,,rec,POINT (-122.411970726 37.749976568),9,Mission,2023/09/28 10:24:18 AM,2023/11/01 11:30:01 AM
Gilman Clubhouse,5040493411167008693,restroom,0,0,0,0,37.716801086381196,-122.38835496893222,Gilman Ave & Griffith,San Francisco,CA,94124,Gilman Playground,publicly_accessible,08:00:00,20:00:00,Daily,,rec,POINT (-122.388354969 37.716801086),10,Bayview Hunters Point,2023/09/28 10:24:18 AM,2023/11/01 11:30:01 AM
